CCSDS_OMM_VERS = 2.0
CREATION_DATE  = 
ORIGINATOR     = 

OBJECT_NAME    = COSMOS 1933
OBJECT_ID      = 1988-020A
CENTER_NAME    = EARTH
REF_FRAME      = TEME
TIME_SYSTEM    = UTC
MEAN_ELEMENT_THEORY = SGP/SGP4

EPOCH          = 2026-02-21T02:40:52.049856
MEAN_MOTION    = 15.17825802
ECCENTRICITY   = .00027557
INCLINATION    = 82.5103
RA_OF_ASC_NODE = 267.3165
ARG_OF_PERICENTER = 256.3809
MEAN_ANOMALY   = 103.7118

EPHEMERIS_TYPE = 0
CLASSIFICATION_TYPE = U
NORAD_CAT_ID   = 18958
ELEMENT_SET_NO = 999
REV_AT_EPOCH   = 4771
BSTAR          = .14795784E-3
MEAN_MOTION_DOT = .3022E-4
MEAN_MOTION_DDOT = 0

CCSDS_OMM_VERS = 2.0
CREATION_DATE  = 
ORIGINATOR     = 

OBJECT_NAME    = SL-3 R/B
OBJECT_ID      = 1988-032B
CENTER_NAME    = EARTH
REF_FRAME      = TEME
TIME_SYSTEM    = UTC
MEAN_ELEMENT_THEORY = SGP/SGP4

EPOCH          = 2026-02-21T12:51:37.803744
MEAN_MOTION    = 15.19690209
ECCENTRICITY   = .00242527
INCLINATION    = 97.5173
RA_OF_ASC_NODE = 35.8499
ARG_OF_PERICENTER = 292.2810
MEAN_ANOMALY   = 67.5853

EPHEMERIS_TYPE = 0
CLASSIFICATION_TYPE = U
NORAD_CAT_ID   = 19046
ELEMENT_SET_NO = 999
REV_AT_EPOCH   = 4965
BSTAR          = .23782467E-3
MEAN_MOTION_DOT = .5044E-4
MEAN_MOTION_DDOT = 0

CCSDS_OMM_VERS = 2.0
CREATION_DATE  = 
ORIGINATOR     = 

OBJECT_NAME    = SL-16 R/B
OBJECT_ID      = 1988-039B
CENTER_NAME    = EARTH
REF_FRAME      = TEME
TIME_SYSTEM    = UTC
MEAN_ELEMENT_THEORY = SGP/SGP4

EPOCH          = 2026-02-21T11:48:31.701312
MEAN_MOTION    = 14.19613758
ECCENTRICITY   = .00217298
INCLINATION    = 71.0136
RA_OF_ASC_NODE = 102.8007
ARG_OF_PERICENTER = 358.5909
MEAN_ANOMALY   = 1.5151

EPHEMERIS_TYPE = 0
CLASSIFICATION_TYPE = U
NORAD_CAT_ID   = 19120
ELEMENT_SET_NO = 999
REV_AT_EPOCH   = 95608
BSTAR          = -.40698718E-4
MEAN_MOTION_DOT = -.134E-5
MEAN_MOTION_DDOT = 0

CCSDS_OMM_VERS = 2.0
CREATION_DATE  = 
ORIGINATOR     = 

OBJECT_NAME    = COSMOS 1953
OBJECT_ID      = 1988-050A
CENTER_NAME    = EARTH
REF_FRAME      = TEME
TIME_SYSTEM    = UTC
MEAN_ELEMENT_THEORY = SGP/SGP4

EPOCH          = 2026-02-21T07:45:13.977216
MEAN_MOTION    = 15.28191069
ECCENTRICITY   = .0011352
INCLINATION    = 82.5106
RA_OF_ASC_NODE = 174.6979
ARG_OF_PERICENTER = 176.9973
MEAN_ANOMALY   = 183.1337

EPHEMERIS_TYPE = 0
CLASSIFICATION_TYPE = U
NORAD_CAT_ID   = 19210
ELEMENT_SET_NO = 999
REV_AT_EPOCH   = 3528
BSTAR          = .32319E-3
MEAN_MOTION_DOT = .8927E-4
MEAN_MOTION_DDOT = 0

CCSDS_OMM_VERS = 2.0
CREATION_DATE  = 
ORIGINATOR     = 

OBJECT_NAME    = SL-8 R/B
OBJECT_ID      = 1988-053B
CENTER_NAME    = EARTH
REF_FRAME      = TEME
TIME_SYSTEM    = UTC
MEAN_ELEMENT_THEORY = SGP/SGP4

EPOCH          = 2026-02-21T12:49:52.209120
MEAN_MOTION    = 14.38905145
ECCENTRICITY   = .00209427
INCLINATION    = 74.0483
RA_OF_ASC_NODE = 142.2430
ARG_OF_PERICENTER = 324.0623
MEAN_ANOMALY   = 138.2407

EPHEMERIS_TYPE = 0
CLASSIFICATION_TYPE = U
NORAD_CAT_ID   = 19257
ELEMENT_SET_NO = 999
REV_AT_EPOCH   = 97427
BSTAR          = .76958551E-4
MEAN_MOTION_DOT = .211E-5
MEAN_MOTION_DDOT = 0

CCSDS_OMM_VERS = 2.0
CREATION_DATE  = 
ORIGINATOR     = 

OBJECT_NAME    = COSMOS 1975
OBJECT_ID      = 1988-093A
CENTER_NAME    = EARTH
REF_FRAME      = TEME
TIME_SYSTEM    = UTC
MEAN_ELEMENT_THEORY = SGP/SGP4

EPOCH          = 2026-02-21T14:44:25.956384
MEAN_MOTION    = 15.27783326
ECCENTRICITY   = .00108091
INCLINATION    = 82.5212
RA_OF_ASC_NODE = 133.8163
ARG_OF_PERICENTER = 221.1798
MEAN_ANOMALY   = 138.8627

EPHEMERIS_TYPE = 0
CLASSIFICATION_TYPE = U
NORAD_CAT_ID   = 19573
ELEMENT_SET_NO = 999
REV_AT_EPOCH   = 1695
BSTAR          = .26063089E-3
MEAN_MOTION_DOT = .7114E-4
MEAN_MOTION_DDOT = 0

CCSDS_OMM_VERS = 2.0
CREATION_DATE  = 
ORIGINATOR     = 

OBJECT_NAME    = SL-14 R/B
OBJECT_ID      = 1988-093B
CENTER_NAME    = EARTH
REF_FRAME      = TEME
TIME_SYSTEM    = UTC
MEAN_ELEMENT_THEORY = SGP/SGP4

EPOCH          = 2026-02-21T12:11:26.994912
MEAN_MOTION    = 14.85635339
ECCENTRICITY   = .00223234
INCLINATION    = 82.5281
RA_OF_ASC_NODE = 57.2376
ARG_OF_PERICENTER = 91.5860
MEAN_ANOMALY   = 24.5968

EPHEMERIS_TYPE = 0
CLASSIFICATION_TYPE = U
NORAD_CAT_ID   = 19574
ELEMENT_SET_NO = 999
REV_AT_EPOCH   = 99863
BSTAR          = .49520041E-4
MEAN_MOTION_DOT = .455E-5
MEAN_MOTION_DDOT = 0

CCSDS_OMM_VERS = 2.0
CREATION_DATE  = 
ORIGINATOR     = 

OBJECT_NAME    = SL-16 R/B
OBJECT_ID      = 1988-102B
CENTER_NAME    = EARTH
REF_FRAME      = TEME
TIME_SYSTEM    = UTC
MEAN_ELEMENT_THEORY = SGP/SGP4

EPOCH          = 2026-02-21T12:25:21.082368
MEAN_MOTION    = 14.16151821
ECCENTRICITY   = .0013065
INCLINATION    = 70.9997
RA_OF_ASC_NODE = 185.5209
ARG_OF_PERICENTER = 26.5451
MEAN_ANOMALY   = 333.6339

EPHEMERIS_TYPE = 0
CLASSIFICATION_TYPE = U
NORAD_CAT_ID   = 19650
ELEMENT_SET_NO = 999
REV_AT_EPOCH   = 92460
BSTAR          = -.53269839E-4
MEAN_MOTION_DOT = -.153E-5
MEAN_MOTION_DDOT = 0

CCSDS_OMM_VERS = 2.0
CREATION_DATE  = 
ORIGINATOR     = 

OBJECT_NAME    = INTERCOSMOS 24
OBJECT_ID      = 1989-080A
CENTER_NAME    = EARTH
REF_FRAME      = TEME
TIME_SYSTEM    = UTC
MEAN_ELEMENT_THEORY = SGP/SGP4

EPOCH          = 2026-02-21T14:22:51.081312
MEAN_MOTION    = 12.59531747
ECCENTRICITY   = .11872541
INCLINATION    = 82.6048
RA_OF_ASC_NODE = 114.8802
ARG_OF_PERICENTER = 330.2004
MEAN_ANOMALY   = 23.6246

EPHEMERIS_TYPE = 0
CLASSIFICATION_TYPE = U
NORAD_CAT_ID   = 20261
ELEMENT_SET_NO = 999
REV_AT_EPOCH   = 66477
BSTAR          = .16444247E-3
MEAN_MOTION_DOT = .56E-5
MEAN_MOTION_DDOT = 0

CCSDS_OMM_VERS = 2.0
CREATION_DATE  = 
ORIGINATOR     = 

OBJECT_NAME    = SL-14 R/B
OBJECT_ID      = 1989-080C
CENTER_NAME    = EARTH
REF_FRAME      = TEME
TIME_SYSTEM    = UTC
MEAN_ELEMENT_THEORY = SGP/SGP4

EPOCH          = 2026-02-21T09:24:20.151360
MEAN_MOTION    = 12.50470657
ECCENTRICITY   = .12298812
INCLINATION    = 82.5963
RA_OF_ASC_NODE = 183.6465
ARG_OF_PERICENTER = 222.0038
MEAN_ANOMALY   = 128.0137

EPHEMERIS_TYPE = 0
CLASSIFICATION_TYPE = U
NORAD_CAT_ID   = 20262
ELEMENT_SET_NO = 999
REV_AT_EPOCH   = 65811
BSTAR          = .15841236E-3
MEAN_MOTION_DOT = .529E-5
MEAN_MOTION_DDOT = 0

CCSDS_OMM_VERS = 2.0
CREATION_DATE  = 
ORIGINATOR     = 

OBJECT_NAME    = DELTA 1 R/B
OBJECT_ID      = 1989-089B
CENTER_NAME    = EARTH
REF_FRAME      = TEME
TIME_SYSTEM    = UTC
MEAN_ELEMENT_THEORY = SGP/SGP4

EPOCH          = 2026-02-21T11:31:39.406080
MEAN_MOTION    = 14.50648357
ECCENTRICITY   = .00692775
INCLINATION    = 97.0715
RA_OF_ASC_NODE = 262.4958
ARG_OF_PERICENTER = 172.6921
MEAN_ANOMALY   = 187.5304

EPHEMERIS_TYPE = 0
CLASSIFICATION_TYPE = U
NORAD_CAT_ID   = 20323
ELEMENT_SET_NO = 999
REV_AT_EPOCH   = 89338
BSTAR          = .76266077E-4
MEAN_MOTION_DOT = .273E-5
MEAN_MOTION_DDOT = 0

CCSDS_OMM_VERS = 2.0
CREATION_DATE  = 
ORIGINATOR     = 

OBJECT_NAME    = ARIANE 40 R/B
OBJECT_ID      = 1990-005H
CENTER_NAME    = EARTH
REF_FRAME      = TEME
TIME_SYSTEM    = UTC
MEAN_ELEMENT_THEORY = SGP/SGP4

EPOCH          = 2026-02-21T09:55:31.967616
MEAN_MOTION    = 14.39858648
ECCENTRICITY   = .00090441
INCLINATION    = 98.3121
RA_OF_ASC_NODE = 113.5570
ARG_OF_PERICENTER = 250.9063
MEAN_ANOMALY   = 109.1146

EPHEMERIS_TYPE = 0
CLASSIFICATION_TYPE = U
NORAD_CAT_ID   = 20443
ELEMENT_SET_NO = 999
REV_AT_EPOCH   = 89046
BSTAR          = .82065249E-4
MEAN_MOTION_DOT = .215E-5
MEAN_MOTION_DDOT = 0

